start=new Date('2023-06-29T00:00:00.000Z').valueOf();
sats=[{"MEAN_ANOMALY":"245.8344","MEAN_MOTION_DDOT":"0.0000000000000","OBJECT_ID":"2021-044AB","SITE":"AFETR","GP_ID":"234590395","REF_FRAME":"TEME","RA_OF_ASC_NODE":"217.4519","MEAN_ELEMENT_THEORY":"SGP4","DECAY_DATE":null,"INCLINATION":"53.0537","MEAN_MOTION_DOT":"0.00002722","OBJECT_NAME":"STARLINK-2667","EPOCH":"2023-06-27T19:10:05.325600","COUNTRY_CODE":"US","SEMIMAJOR_AXIS":"6925.362","PERIOD":"95.592","OBJECT_TYPE":"PAYLOAD","CLASSIFICATION_TYPE":"U","BSTAR":"0.00020160000000","MEAN_MOTION":"15.06395627","TIME_SYSTEM":"UTC","EPHEMERIS_TYPE":"0","NORAD_CAT_ID":"48663","FILE":"3944341","RCS_SIZE":"LARGE","PERIAPSIS":"546.330","ARG_OF_PERICENTER":"114.2780","TLE_LINE1":"1 48663U 21044AB  23178.79867275  .00002722  00000-0  20160-3 0  9995","APOAPSIS":"548.124","CENTER_NAME":"EARTH","TLE_LINE2":"2 48663  53.0537 217.4519 0001295 114.2780 245.8344 15.06395627116092","ECCENTRICITY":"0.00012950","REV_AT_EPOCH":"11609","ELEMENT_SET_NO":"999","LAUNCH_DATE":"2021-05-26"},{"RCS_SIZE":"LARGE","FILE":"3945222","PERIAPSIS":"546.274","MEAN_MOTION":"15.06397849","BSTAR":"0.00011325000000","NORAD_CAT_ID":"48664","EPHEMERIS_TYPE":"0","TIME_SYSTEM":"UTC","TLE_LINE2":"2 48664  53.0526 213.8943 0001366  74.3300 285.7840 15.06397849116277","ECCENTRICITY":"0.00013660","LAUNCH_DATE":"2021-05-26","ELEMENT_SET_NO":"999","REV_AT_EPOCH":"11627","CENTER_NAME":"EARTH","APOAPSIS":"548.166","TLE_LINE1":"1 48664U 21044AC  23179.59115248  .00001406  00000-0  11325-3 0  9992","ARG_OF_PERICENTER":"74.3300","MEAN_ELEMENT_THEORY":"SGP4","RA_OF_ASC_NODE":"213.8943","REF_FRAME":"TEME","DECAY_DATE":null,"GP_ID":"234612184","SITE":"AFETR","MEAN_MOTION_DDOT":"0.0000000000000","OBJECT_ID":"2021-044AC","MEAN_ANOMALY":"285.7840","OBJECT_TYPE":"PAYLOAD","SEMIMAJOR_AXIS":"6925.355","PERIOD":"95.592","CLASSIFICATION_TYPE":"U","MEAN_MOTION_DOT":"0.00001406","INCLINATION":"53.0526","OBJECT_NAME":"STARLINK-2709","COUNTRY_CODE":"US","EPOCH":"2023-06-28T14:11:15.574272"},{"BSTAR":"0.00016159000000","MEAN_MOTION":"15.06393481","EPHEMERIS_TYPE":"0","TIME_SYSTEM":"UTC","NORAD_CAT_ID":"48665","RCS_SIZE":"LARGE","FILE":"3945099","PERIAPSIS":"546.458","ARG_OF_PERICENTER":"95.1574","TLE_LINE1":"1 48665U 21044AD  23179.40591309  .00002126  00000-0  16159-3 0  9999","APOAPSIS":"548.009","CENTER_NAME":"EARTH","TLE_LINE2":"2 48665  53.0525 214.7316 0001120  95.1574 264.9543 15.06393481116247","ECCENTRICITY":"0.00011200","REV_AT_EPOCH":"11624","LAUNCH_DATE":"2021-05-26","ELEMENT_SET_NO":"999","MEAN_ANOMALY":"264.9543","OBJECT_ID":"2021-044AD","MEAN_MOTION_DDOT":"0.0000000000000","SITE":"AFETR","GP_ID":"234608603","REF_FRAME":"TEME","RA_OF_ASC_NODE":"214.7316","MEAN_ELEMENT_THEORY":"SGP4","DECAY_DATE":null,"MEAN_MOTION_DOT":"0.00002126","INCLINATION":"53.0525","OBJECT_NAME":"STARLINK-2653","EPOCH":"2023-06-28T09:44:30.890976","COUNTRY_CODE":"US","PERIOD":"95.593","SEMIMAJOR_AXIS":"6925.369","OBJECT_TYPE":"PAYLOAD","CLASSIFICATION_TYPE":"U"},{"OBJECT_NAME":"STARLINK-2666","MEAN_MOTION_DOT":"0.00000796","INCLINATION":"53.0532","COUNTRY_CODE":"US","EPOCH":"2023-06-28T03:39:43.233408","OBJECT_TYPE":"PAYLOAD","PERIOD":"95.593","SEMIMAJOR_AXIS":"6925.369","CLASSIFICATION_TYPE":"U","GP_ID":"234597730","SITE":"AFETR","MEAN_MOTION_DDOT":"0.0000000000000","OBJECT_ID":"2021-044AE","MEAN_ANOMALY":"262.2099","MEAN_ELEMENT_THEORY":"SGP4","RA_OF_ASC_NODE":"216.3371","REF_FRAME":"TEME","DECAY_DATE":null,"CENTER_NAME":"EARTH","APOAPSIS":"548.086","ARG_OF_PERICENTER":"97.9029","TLE_LINE1":"1 48666U 21044AE  23179.15258372  .00000796  00000-0  72326-4 0  9992","TLE_LINE2":"2 48666  53.0532 216.3371 0001230  97.9029 262.2099 15.06393170116198","ECCENTRICITY":"0.00012300","LAUNCH_DATE":"2021-05-26","ELEMENT_SET_NO":"999","REV_AT_EPOCH":"11619","MEAN_MOTION":"15.06393170","BSTAR":"0.00007232600000","NORAD_CAT_ID":"48666","EPHEMERIS_TYPE":"0","TIME_SYSTEM":"UTC","RCS_SIZE":"LARGE","FILE":"3944627","PERIAPSIS":"546.383"},{"CLASSIFICATION_TYPE":"U","PERIOD":"95.593","SEMIMAJOR_AXIS":"6925.368","OBJECT_TYPE":"PAYLOAD","COUNTRY_CODE":"US","EPOCH":"2023-06-28T02:57:10.427040","OBJECT_NAME":"STARLINK-2735","MEAN_MOTION_DOT":"0.00001953","INCLINATION":"53.0522","DECAY_DATE":null,"RA_OF_ASC_NODE":"215.9956","MEAN_ELEMENT_THEORY":"SGP4","REF_FRAME":"TEME","SITE":"AFETR","GP_ID":"234597570","MEAN_ANOMALY":"264.9475","OBJECT_ID":"2021-044AF","MEAN_MOTION_DDOT":"0.0000000000000","ELEMENT_SET_NO":"999","LAUNCH_DATE":"2021-05-26","REV_AT_EPOCH":"11614","TLE_LINE2":"2 48667  53.0522 215.9956 0001135  95.1644 264.9475 15.06393735116148","ECCENTRICITY":"0.00011350","CENTER_NAME":"EARTH","TLE_LINE1":"1 48667U 21044AF  23179.12303735  .00001953  00000-0  14998-3 0  9990","ARG_OF_PERICENTER":"95.1644","APOAPSIS":"548.019","PERIAPSIS":"546.447","FILE":"3944633","RCS_SIZE":"LARGE","NORAD_CAT_ID":"48667","TIME_SYSTEM":"UTC","EPHEMERIS_TYPE":"0","MEAN_MOTION":"15.06393735","BSTAR":"0.00014998000000"},{"REV_AT_EPOCH":"11620","ELEMENT_SET_NO":"999","LAUNCH_DATE":"2021-05-26","TLE_LINE2":"2 48668  53.0536 216.0117 0001368 102.9212 257.1930 15.06397791116204","ECCENTRICITY":"0.00013680","APOAPSIS":"548.168","TLE_LINE1":"1 48668U 21044AG  23179.11935155  .00001875  00000-0  14471-3 0  9996","ARG_OF_PERICENTER":"102.9212","CENTER_NAME":"EARTH","PERIAPSIS":"546.273","FILE":"3944633","RCS_SIZE":"LARGE","TIME_SYSTEM":"UTC","EPHEMERIS_TYPE":"0","NORAD_CAT_ID":"48668","BSTAR":"0.00014471000000","MEAN_MOTION":"15.06397791","CLASSIFICATION_TYPE":"U","OBJECT_TYPE":"PAYLOAD","PERIOD":"95.592","SEMIMAJOR_AXIS":"6925.355","EPOCH":"2023-06-28T02:51:51.973920","COUNTRY_CODE":"US","INCLINATION":"53.0536","MEAN_MOTION_DOT":"0.00001875","OBJECT_NAME":"STARLINK-2738","DECAY_DATE":null,"REF_FRAME":"TEME","MEAN_ELEMENT_THEORY":"SGP4","RA_OF_ASC_NODE":"216.0117","OBJECT_ID":"2021-044AG","MEAN_MOTION_DDOT":"0.0000000000000","MEAN_ANOMALY":"257.1930","GP_ID":"234597825","SITE":"AFETR"},{"NORAD_CAT_ID":"48669","TIME_SYSTEM":"UTC","EPHEMERIS_TYPE":"0","MEAN_MOTION":"15.06398551","BSTAR":"0.00021171000000","PERIAPSIS":"546.520","RCS_SIZE":"LARGE","FILE":"3944809","CENTER_NAME":"EARTH","APOAPSIS":"547.916","TLE_LINE1":"1 48669U 21044AH  23179.11566607  .00002873  00000-0  21171-3 0  9993","ARG_OF_PERICENTER":"62.7384","LAUNCH_DATE":"2021-05-26","ELEMENT_SET_NO":"999","REV_AT_EPOCH":"11613","TLE_LINE2":"2 48669  53.0526 216.0337 0001008  62.7384 297.3708 15.06398551116138","ECCENTRICITY":"0.00010080","GP_ID":"234602098","SITE":"AFETR","OBJECT_ID":"2021-044AH","MEAN_MOTION_DDOT":"0.0000000000000","MEAN_ANOMALY":"297.3708","DECAY_DATE":null,"MEAN_ELEMENT_THEORY":"SGP4","RA_OF_ASC_NODE":"216.0337","REF_FRAME":"TEME","COUNTRY_CODE":"US","EPOCH":"2023-06-28T02:46:33.548448","INCLINATION":"53.0526","MEAN_MOTION_DOT":"0.00002873","OBJECT_NAME":"STARLINK-2707","CLASSIFICATION_TYPE":"U","OBJECT_TYPE":"PAYLOAD","PERIOD":"95.592","SEMIMAJOR_AXIS":"6925.353"},{"CENTER_NAME":"EARTH","ARG_OF_PERICENTER":"90.8855","TLE_LINE1":"1 48670U 21044AJ  23179.37737119  .00001051  00000-0  89441-4 0  9993","APOAPSIS":"548.044","TLE_LINE2":"2 48670  53.0523 214.8574 0001170  90.8855 269.2268 15.06393363116170","ECCENTRICITY":"0.00011700","ELEMENT_SET_NO":"999","LAUNCH_DATE":"2021-05-26","REV_AT_EPOCH":"11617","MEAN_MOTION":"15.06393363","BSTAR":"0.00008944100000","NORAD_CAT_ID":"48670","EPHEMERIS_TYPE":"0","TIME_SYSTEM":"UTC","FILE":"3944881","RCS_SIZE":"LARGE","PERIAPSIS":"546.424","MEAN_MOTION_DOT":"0.00001051","INCLINATION":"53.0523","OBJECT_NAME":"STARLINK-2763","COUNTRY_CODE":"US","EPOCH":"2023-06-28T09:03:24.870816","SEMIMAJOR_AXIS":"6925.369","PERIOD":"95.593","OBJECT_TYPE":"PAYLOAD","CLASSIFICATION_TYPE":"U","SITE":"AFETR","GP_ID":"234603369","MEAN_ANOMALY":"269.2268","OBJECT_ID":"2021-044AJ","MEAN_MOTION_DDOT":"0.0000000000000","RA_OF_ASC_NODE":"214.8574","MEAN_ELEMENT_THEORY":"SGP4","REF_FRAME":"TEME","DECAY_DATE":null},{"ARG_OF_PERICENTER":"95.3335","TLE_LINE1":"1 48671U 21044AK  23178.84290633  .00002679  00000-0  19872-3 0  9997","APOAPSIS":"548.009","CENTER_NAME":"EARTH","REV_AT_EPOCH":"11609","ELEMENT_SET_NO":"999","LAUNCH_DATE":"2021-05-26","ECCENTRICITY":"0.00011290","TLE_LINE2":"2 48671  53.0524 217.2537 0001129  95.3335 264.7782 15.06395550116097","EPHEMERIS_TYPE":"0","TIME_SYSTEM":"UTC","NORAD_CAT_ID":"48671","BSTAR":"0.00019872000000","MEAN_MOTION":"15.06395550","PERIAPSIS":"546.445","RCS_SIZE":"LARGE","FILE":"3944381","EPOCH":"2023-06-27T20:13:47.106912","COUNTRY_CODE":"US","OBJECT_NAME":"STARLINK-2745","MEAN_MOTION_DOT":"0.00002679","INCLINATION":"53.0524","CLASSIFICATION_TYPE":"U","PERIOD":"95.592","SEMIMAJOR_AXIS":"6925.362","OBJECT_TYPE":"PAYLOAD","MEAN_ANOMALY":"264.7782","OBJECT_ID":"2021-044AK","MEAN_MOTION_DDOT":"0.0000000000000","SITE":"AFETR","GP_ID":"234590781","DECAY_DATE":null,"REF_FRAME":"TEME","RA_OF_ASC_NODE":"217.2537","MEAN_ELEMENT_THEORY":"SGP4"},{"COUNTRY_CODE":"US","EPOCH":"2023-06-28T08:52:47.928288","OBJECT_NAME":"STARLINK-2705","MEAN_MOTION_DOT":"0.00001424","INCLINATION":"53.0525","CLASSIFICATION_TYPE":"U","SEMIMAJOR_AXIS":"6925.365","PERIOD":"95.592","OBJECT_TYPE":"PAYLOAD","SITE":"AFETR","GP_ID":"234603391","MEAN_ANOMALY":"273.1571","OBJECT_ID":"2021-044AL","MEAN_MOTION_DDOT":"0.0000000000000","DECAY_DATE":null,"RA_OF_ASC_NODE":"214.8910","MEAN_ELEMENT_THEORY":"SGP4","REF_FRAME":"TEME","CENTER_NAME":"EARTH","ARG_OF_PERICENTER":"86.9542","TLE_LINE1":"1 48672U 21044AL  23179.36999917  .00001424  00000-0  11451-3 0  9999","APOAPSIS":"547.977","LAUNCH_DATE":"2021-05-26","ELEMENT_SET_NO":"999","REV_AT_EPOCH":"11623","TLE_LINE2":"2 48672  53.0525 214.8910 0001079  86.9542 273.1571 15.06394629116239","ECCENTRICITY":"0.00010790","NORAD_CAT_ID":"48672","TIME_SYSTEM":"UTC","EPHEMERIS_TYPE":"0","MEAN_MOTION":"15.06394629","BSTAR":"0.00011451000000","PERIAPSIS":"546.483","RCS_SIZE":"LARGE","FILE":"3944882"}];
